     2.100          NAVIGATION                              RINEX VERSION / TYPE
fic2rin                                 01/29/2013 00:24:21 PGM / RUN BY / DATE
                                                            END OF HEADER
 9 13  1 28  9 59 44.0  .216796528548D-03  .261479726760D-11  .000000000000D+00
     .260000000000D+02  .103812500000D+03  .380765860426D-08  .959079835422D+00
     .528618693352D-05  .170693324180D-01  .106655061245D-04  .515283166122D+04
     .122384000000D+06 -.206753611565D-06 -.248083047456D+01 -.193715095520D-06
     .984577767547D+00  .187375000000D+03  .163699915572D+01 -.799997608826D-08
     .308941440080D-09  .100000000000D+01  .172500000000D+04  .000000000000D+00
     .240000000000D+01  .000000000000D+00 -.558793544769D-08  .260000000000D+02
     .115206000000D+06  .400000000000D+01
15 13  1 28  9 59 44.0 -.106531195343D-03 -.125055521494D-11  .000000000000D+00
     .100000000000D+01 -.393125000000D+02  .485234497679D-08 -.313850769729D+01
    -.198185443878D-05  .527878699359D-02  .100079923868D-04  .515370495987D+04
     .122384000000D+06 -.167638063431D-07  .273455440290D+01 -.279396772385D-07
     .942491067085D+00  .177843750000D+03  .123713218066D+00 -.812855287257D-08
    -.584667210879D-09  .100000000000D+01  .172500000000D+04  .000000000000D+00
     .240000000000D+01  .000000000000D+00 -.102445483208D-07  .100000000000D+01
     .115206000000D+06  .400000000000D+01
19 13  1 28  9 59 44.0 -.343719962984D-03 -.329691829393D-11  .000000000000D+00
     .200000000000D+01 -.109281250000D+03  .437589655937D-08  .308972424063D+01
    -.565126538277D-05  .885788234882D-02  .935606658459D-05  .515366743660D+04
     .122384000000D+06 -.145286321640D-06 -.289631741216D+00 -.428408384323D-07
     .962258026412D+00  .200312500000D+03  .276389395059D+00 -.783604068826D-08
    -.255724937684D-09  .100000000000D+01  .172500000000D+04  .000000000000D+00
     .240000000000D+01  .000000000000D+00 -.144354999065D-07  .200000000000D+01
     .115206000000D+06  .400000000000D+01
 1 13  1 28 10  0  0.0  .296260695904D-03  .250111042988D-11  .000000000000D+00
     .120000000000D+02  .215312500000D+02  .447840082908D-08  .146832638500D+01
     .119581818581D-05  .157254503574D-02  .109411776066D-04  .515371059608D+04
     .122400000000D+06 -.204890966415D-07  .665932359739D+00  .428408384323D-07
     .960333393832D+00  .167437500000D+03  .456418223902D+00 -.792104422900D-08
     .413588656199D-09  .100000000000D+01  .172500000000D+04  .000000000000D+00
     .240000000000D+01  .000000000000D+00  .838190317154D-08  .120000000000D+02
     .115206000000D+06  .400000000000D+01
 2 13  1 28 10  0  0.0  .416354276240D-03  .125055521494D-11  .000000000000D+00
     .650000000000D+02  .163750000000D+02  .480698594455D-08  .242275833804D+01
     .759959220886D-06  .119315627962D-01  .122543424368D-04  .515360605049D+04
     .122400000000D+06 -.240281224251D-06  .646873471779D+00 -.875443220139D-07
     .938866639267D+00  .131750000000D+03 -.268200292570D+01 -.799783314185D-08
     .467162316328D-09  .100000000000D+01  .172500000000D+04  .000000000000D+00
     .240000000000D+01  .000000000000D+00 -.176951289177D-07  .650000000000D+02
     .115206000000D+06  .400000000000D+01
 3 13  1 28 10  0  0.0  .160814728588D-03  .500222085975D-11  .000000000000D+00
     .120000000000D+02 -.122875000000D+03  .510164107526D-08  .258203501855D+01
    -.645406544209D-05  .159589762334D-01  .635348260403D-05  .515367861748D+04
     .122400000000D+06  .689178705215D-07 -.520435463460D+00 -.206753611565D-06
     .933640226914D+00  .240531250000D+03  .126572052723D+01 -.817284043161D-08
    -.365372362083D-09  .100000000000D+01  .172500000000D+04  .000000000000D+00
     .240000000000D+01  .000000000000D+00 -.465661287308D-08  .120000000000D+02
     .115206000000D+06  .400000000000D+01
 4 13  1 28 10  0  0.0  .117969699204D-03  .110276232590D-10  .000000000000D+00
     .500000000000D+02  .252187500000D+02  .497913597243D-08 -.603261374932D+00
     .138767063618D-05  .103859610390D-01  .112708657980D-04  .515374113083D+04
     .122400000000D+06 -.204890966415D-07  .663448943654D+00  .193715095520D-06
     .937890731005D+00  .149906250000D+03  .955910650156D+00 -.834106172442D-08
     .438232539859D-09  .100000000000D+01  .172500000000D+04  .000000000000D+00
     .240000000000D+01  .000000000000D+00 -.651925802231D-08  .500000000000D+02
     .115206000000D+06  .400000000000D+01
 5 13  1 28 10  0  0.0 -.380915589631D-03 -.193267624127D-11  .000000000000D+00
     .970000000000D+02  .104687500000D+02  .526593363299D-08 -.182072318251D+01
     .517815351486D-06  .307967141271D-02  .411458313465D-05  .515353879166D+04
     .122400000000D+06 -.223517417908D-07  .171172385697D+01 -.391155481339D-07
     .948864205329D+00  .294937500000D+03  .316808760974D+00 -.846463830045D-08
     .678599694973D-10  .100000000000D+01  .172500000000D+04  .000000000000D+00
     .240000000000D+01  .000000000000D+00 -.102445483208D-07  .970000000000D+02
     .115206000000D+06  .400000000000D+01
 6 13  1 28 10  0  0.0  .372130889446D-03 -.140971678775D-10  .000000000000D+00
     .420000000000D+02 -.113000000000D+03  .499163649312D-08 -.181177658557D+01
    -.595673918724D-05  .766492483672D-02  .783987343311D-05  .515369120026D+04
     .122400000000D+06 -.175088644028D-06 -.441898551306D+00 -.145286321640D-06
     .940399919317D+00  .219406250000D+03 -.389649054036D+00 -.837713465557D-08
    -.241438628317D-09  .100000000000D+01  .172500000000D+04  .000000000000D+00
     .240000000000D+01  .000000000000D+00 -.512227416039D-08  .420000000000D+02
     .115206000000D+06  .400000000000D+01
 7 13  1 28 10  0  0.0  .174100045115D-03  .443378667114D-11  .000000000000D+00
     .730000000000D+02  .108093750000D+03  .397516558160D-08  .102205218574D+01
     .564940273762D-05  .605680106673D-02  .967457890511D-05  .515371309090D+04
     .122400000000D+06 -.409781932831D-07 -.245681554345D+01  .158324837685D-06
     .975897408536D+00  .201468750000D+03 -.292267334866D+01 -.781068248913D-08
     .263939565571D-09  .100000000000D+01  .172500000000D+04  .000000000000D+00
     .240000000000D+01  .000000000000D+00 -.111758708954D-07  .730000000000D+02
     .115206000000D+06  .400000000000D+01
 8 13  1 28 10  0  0.0  .431295484304D-05  .227373675443D-12  .000000000000D+00
     .190000000000D+02  .113687500000D+03  .354907640471D-08  .444814691243D+00
     .602938234806D-05  .127077002544D-01  .912882387638D-05  .515361064148D+04
     .122400000000D+06  .189989805222D-06 -.236819067153D+01  .229105353355D-06
     .998382182922D+00  .223593750000D+03 -.288364934181D+01 -.774853704338D-08
     .385373195198D-09  .100000000000D+01  .172500000000D+04  .000000000000D+00
     .240000000000D+01  .000000000000D+00 -.419095158577D-08  .190000000000D+02
     .115206000000D+06  .400000000000D+01
10 13  1 28 10  0  0.0 -.678603537381D-04 -.147792889038D-11  .000000000000D+00
     .310000000000D+02  .621875000000D+01  .532200739726D-08 -.148981166304D+01
     .394880771637D-06  .122911459766D-01  .371970236301D-05  .515375118828D+04
     .122400000000D+06  .279396772385D-06  .173185983007D+01 -.894069671631D-07
     .943712621236D+00  .296593750000D+03  .794175206665D+00 -.844749472921D-08
     .271439877989D-10  .100000000000D+01  .172500000000D+04  .000000000000D+00
     .240000000000D+01  .000000000000D+00 -.279396772385D-08  .310000000000D+02
     .115206000000D+06  .400000000000D+01
11 13  1 28 10  0  0.0 -.347911380231D-03 -.375166564481D-11  .000000000000D+00
     .540000000000D+02 -.204062500000D+02  .606846706173D-08  .122682342706D+01
    -.102445483208D-05  .138175296597D-01  .119861215353D-04  .515369048309D+04
     .122400000000D+06 -.309199094772D-06  .377890122903D+00 -.558793544769D-08
     .888988698976D+00  .114406250000D+03  .114142107839D+01 -.882322466558D-08
     .185007706314D-09  .100000000000D+01  .172500000000D+04  .000000000000D+00
     .240000000000D+01  .000000000000D+00 -.116415321827D-07  .540000000000D+02
     .115206000000D+06  .400000000000D+01
12 13  1 28 10  0  0.0  .114783644676D-03  .204636307899D-11  .000000000000D+00
     .800000000000D+02  .137187500000D+02  .454876090272D-08  .755364181664D+00
     .633299350739D-06  .422810157761D-02  .157579779625D-05  .515362937927D+04
     .122400000000D+06  .260770320892D-07 -.139855612062D+01  .521540641785D-07
     .982429052491D+00  .363750000000D+03  .143317010826D+00 -.839284959587D-08
     .850035407387D-10  .100000000000D+01  .172500000000D+04  .000000000000D+00
     .240000000000D+01  .000000000000D+00 -.121071934700D-07  .800000000000D+02
     .115206000000D+06  .400000000000D+01
13 13  1 28 10  0  0.0  .149131752551D-03 -.284217094304D-11  .000000000000D+00
     .110000000000D+02 -.139062500000D+02  .382444501777D-08 -.280487272468D+01
    -.717118382454D-06  .494341377635D-02  .108852982521D-04  .515356155396D+04
     .122400000000D+06  .447034835815D-07  .285881067372D+01  .614672899246D-07
     .983189752337D+00  .181218750000D+03  .206689637768D+01 -.751781314709D-08
    -.521450291926D-09  .100000000000D+01  .172500000000D+04  .000000000000D+00
     .240000000000D+01  .000000000000D+00 -.111758708954D-07  .110000000000D+02
     .115206000000D+06  .400000000000D+01
14 13  1 28 10  0  0.0  .220028683543D-03  .341060513165D-12  .000000000000D+00
     .740000000000D+02 -.295000000000D+02  .392087760600D-08 -.266867466529D+01
    -.142492353916D-05  .669634784572D-02  .105090439320D-04  .515370191002D+04
     .122400000000D+06 -.223517417908D-07  .283041924031D+01 -.763684511185D-07
     .975893449879D+00  .184625000000D+03 -.201905191839D+01 -.754459997716D-08
    -.475376944215D-09  .100000000000D+01  .172500000000D+04  .000000000000D+00
     .240000000000D+01  .000000000000D+00 -.884756445885D-08  .740000000000D+02
     .115206000000D+06  .400000000000D+01
